[{"OBJECT_NAME":"ONEWEB-0176","OBJECT_ID":"2021-031A","EPOCH":"2025-10-05T04:25:33.341952","MEAN_MOTION":13.14502986,"ECCENTRICITY":0.0001903,"INCLINATION":87.9062,"RA_OF_ASC_NODE":340.4891,"ARG_OF_PERICENTER":103.2919,"MEAN_ANOMALY":256.8423,"EPHEMERIS_TYPE":0,"CLASSIFICATION_TYPE":"U","NORAD_CAT_ID":48210,"ELEMENT_SET_NO":999,"REV_AT_EPOCH":21481,"BSTAR":7.058e-5,"MEAN_MOTION_DOT":3.9e-7,"MEAN_MOTION_DDOT":0},{"OBJECT_NAME":"ONEWEB-0184","OBJECT_ID":"2021-031B","EPOCH":"2025-10-05T03:46:44.141376","MEAN_MOTION":13.14503244,"ECCENTRICITY":0.0001979,"INCLINATION":87.9071,"RA_OF_ASC_NODE":340.4684,"ARG_OF_PERICENTER":125.5331,"MEAN_ANOMALY":234.5983,"EPHEMERIS_TYPE":0,"CLASSIFICATION_TYPE":"U","NORAD_CAT_ID":48211,"ELEMENT_SET_NO":999,"REV_AT_EPOCH":21478,"BSTAR":0.00053084,"MEAN_MOTION_DOT":2.1e-6,"MEAN_MOTION_DDOT":0},{"OBJECT_NAME":"ONEWEB-0179","OBJECT_ID":"2021-031C","EPOCH":"2025-10-05T04:54:04.474080","MEAN_MOTION":13.14500931,"ECCENTRICITY":0.0001968,"INCLINATION":87.906,"RA_OF_ASC_NODE":340.4729,"ARG_OF_PERICENTER":97.9461,"MEAN_ANOMALY":262.1893,"EPHEMERIS_TYPE":0,"CLASSIFICATION_TYPE":"U","NORAD_CAT_ID":48212,"ELEMENT_SET_NO":999,"REV_AT_EPOCH":21483,"BSTAR":-0.0003423,"MEAN_MOTION_DOT":-1.14e-6,"MEAN_MOTION_DDOT":0},{"OBJECT_NAME":"ONEWEB-0180","OBJECT_ID":"2021-031D","EPOCH":"2025-10-05T03:51:17.656128","MEAN_MOTION":13.14501772,"ECCENTRICITY":0.0002164,"INCLINATION":87.9071,"RA_OF_ASC_NODE":340.4737,"ARG_OF_PERICENTER":103.234,"MEAN_ANOMALY":256.9031,"EPHEMERIS_TYPE":0,"CLASSIFICATION_TYPE":"U","NORAD_CAT_ID":48213,"ELEMENT_SET_NO":999,"REV_AT_EPOCH":21471,"BSTAR":0.00074259,"MEAN_MOTION_DOT":2.88e-6,"MEAN_MOTION_DDOT":0},{"OBJECT_NAME":"ONEWEB-0218","OBJECT_ID":"2021-031E","EPOCH":"2025-10-05T04:23:15.571968","MEAN_MOTION":13.14501291,"ECCENTRICITY":0.0002268,"INCLINATION":87.9074,"RA_OF_ASC_NODE":340.4699,"ARG_OF_PERICENTER":123.6476,"MEAN_ANOMALY":236.487,"EPHEMERIS_TYPE":0,"CLASSIFICATION_TYPE":"U","NORAD_CAT_ID":48214,"ELEMENT_SET_NO":999,"REV_AT_EPOCH":21487,"BSTAR":0.00019141,"MEAN_MOTION_DOT":8.4e-7,"MEAN_MOTION_DDOT":0},{"OBJECT_NAME":"ONEWEB-0209","OBJECT_ID":"2021-031F","EPOCH":"2025-10-05T04:07:16.778208","MEAN_MOTION":13.14501687,"ECCENTRICITY":0.0002105,"INCLINATION":87.9067,"RA_OF_ASC_NODE":340.5144,"ARG_OF_PERICENTER":98.3099,"MEAN_ANOMALY":261.8269,"EPHEMERIS_TYPE":0,"CLASSIFICATION_TYPE":"U","NORAD_CAT_ID":48215,"ELEMENT_SET_NO":999,"REV_AT_EPOCH":21487,"BSTAR":0.00070553,"MEAN_MOTION_DOT":2.74e-6,"MEAN_MOTION_DDOT":0},{"OBJECT_NAME":"ONEWEB-0198","OBJECT_ID":"2021-031G","EPOCH":"2025-10-05T03:44:38.177088","MEAN_MOTION":13.14502485,"ECCENTRICITY":0.0002259,"INCLINATION":87.9059,"RA_OF_ASC_NODE":340.5162,"ARG_OF_PERICENTER":107.9669,"MEAN_ANOMALY":252.1707,"EPHEMERIS_TYPE":0,"CLASSIFICATION_TYPE":"U","NORAD_CAT_ID":48216,"ELEMENT_SET_NO":999,"REV_AT_EPOCH":21498,"BSTAR":0.00062293,"MEAN_MOTION_DOT":2.44e-6,"MEAN_MOTION_DDOT":0},{"OBJECT_NAME":"ONEWEB-0189","OBJECT_ID":"2021-031H","EPOCH":"2025-10-05T04:02:43.082016","MEAN_MOTION":13.14503144,"ECCENTRICITY":0.0002176,"INCLINATION":87.9061,"RA_OF_ASC_NODE":340.4868,"ARG_OF_PERICENTER":107.1415,"MEAN_ANOMALY":252.9953,"EPHEMERIS_TYPE":0,"CLASSIFICATION_TYPE":"U","NORAD_CAT_ID":48217,"ELEMENT_SET_NO":999,"REV_AT_EPOCH":21472,"BSTAR":0.00087796,"MEAN_MOTION_DOT":3.38e-6,"MEAN_MOTION_DDOT":0},{"OBJECT_NAME":"ONEWEB-0196","OBJECT_ID":"2021-031J","EPOCH":"2025-10-05T03:30:44.463744","MEAN_MOTION":13.14501996,"ECCENTRICITY":0.0002024,"INCLINATION":87.9061,"RA_OF_ASC_NODE":340.5068,"ARG_OF_PERICENTER":101.0862,"MEAN_ANOMALY":259.0495,"EPHEMERIS_TYPE":0,"CLASSIFICATION_TYPE":"U","NORAD_CAT_ID":48218,"ELEMENT_SET_NO":999,"REV_AT_EPOCH":21472,"BSTAR":6.9996e-5,"MEAN_MOTION_DOT":3.9e-7,"MEAN_MOTION_DDOT":0},{"OBJECT_NAME":"ONEWEB-0183","OBJECT_ID":"2021-031K","EPOCH":"2025-10-05T04:43:48.670176","MEAN_MOTION":13.14501295,"ECCENTRICITY":0.0001925,"INCLINATION":87.9059,"RA_OF_ASC_NODE":340.5054,"ARG_OF_PERICENTER":92.4441,"MEAN_ANOMALY":267.6909,"EPHEMERIS_TYPE":0,"CLASSIFICATION_TYPE":"U","NORAD_CAT_ID":48219,"ELEMENT_SET_NO":999,"REV_AT_EPOCH":21482,"BSTAR":-0.0003366,"MEAN_MOTION_DOT":-1.12e-6,"MEAN_MOTION_DDOT":0},{"OBJECT_NAME":"ONEWEB-0185","OBJECT_ID":"2021-031L","EPOCH":"2025-10-05T03:31:52.908096","MEAN_MOTION":13.14502977,"ECCENTRICITY":0.0002244,"INCLINATION":87.9056,"RA_OF_ASC_NODE":340.4829,"ARG_OF_PERICENTER":93.5048,"MEAN_ANOMALY":266.6339,"EPHEMERIS_TYPE":0,"CLASSIFICATION_TYPE":"U","NORAD_CAT_ID":48220,"ELEMENT_SET_NO":999,"REV_AT_EPOCH":21474,"BSTAR":0.00021681,"MEAN_MOTION_DOT":9.3e-7,"MEAN_MOTION_DDOT":0},{"OBJECT_NAME":"ONEWEB-0187","OBJECT_ID":"2021-031M","EPOCH":"2025-10-05T04:52:45.848352","MEAN_MOTION":13.1450303,"ECCENTRICITY":0.0002169,"INCLINATION":87.9062,"RA_OF_ASC_NODE":340.5181,"ARG_OF_PERICENTER":99.0984,"MEAN_ANOMALY":261.0391,"EPHEMERIS_TYPE":0,"CLASSIFICATION_TYPE":"U","NORAD_CAT_ID":48221,"ELEMENT_SET_NO":999,"REV_AT_EPOCH":21476,"BSTAR":-0.00061419,"MEAN_MOTION_DOT":-2.15e-6,"MEAN_MOTION_DDOT":0},{"OBJECT_NAME":"ONEWEB-0192","OBJECT_ID":"2021-031N","EPOCH":"2025-10-05T04:09:33.565824","MEAN_MOTION":13.14501197,"ECCENTRICITY":0.0001903,"INCLINATION":87.9062,"RA_OF_ASC_NODE":340.5169,"ARG_OF_PERICENTER":101.7958,"MEAN_ANOMALY":258.3385,"EPHEMERIS_TYPE":0,"CLASSIFICATION_TYPE":"U","NORAD_CAT_ID":48222,"ELEMENT_SET_NO":999,"REV_AT_EPOCH":21467,"BSTAR":0.00059471,"MEAN_MOTION_DOT":2.33e-6,"MEAN_MOTION_DDOT":0},{"OBJECT_NAME":"ONEWEB-0219","OBJECT_ID":"2021-031P","EPOCH":"2025-10-05T03:39:52.452288","MEAN_MOTION":13.14502325,"ECCENTRICITY":0.0002165,"INCLINATION":87.906,"RA_OF_ASC_NODE":340.4937,"ARG_OF_PERICENTER":97.009,"MEAN_ANOMALY":263.1286,"EPHEMERIS_TYPE":0,"CLASSIFICATION_TYPE":"U","NORAD_CAT_ID":48223,"ELEMENT_SET_NO":999,"REV_AT_EPOCH":21487,"BSTAR":0.00037421,"MEAN_MOTION_DOT":1.52e-6,"MEAN_MOTION_DDOT":0},{"OBJECT_NAME":"ONEWEB-0202","OBJECT_ID":"2021-031Q","EPOCH":"2025-10-05T05:02:04.937568","MEAN_MOTION":13.14502017,"ECCENTRICITY":0.0002324,"INCLINATION":87.9054,"RA_OF_ASC_NODE":340.4961,"ARG_OF_PERICENTER":116.5854,"MEAN_ANOMALY":243.5514,"EPHEMERIS_TYPE":0,"CLASSIFICATION_TYPE":"U","NORAD_CAT_ID":48224,"ELEMENT_SET_NO":999,"REV_AT_EPOCH":21486,"BSTAR":-0.0003667,"MEAN_MOTION_DOT":-1.23e-6,"MEAN_MOTION_DDOT":0},{"OBJECT_NAME":"ONEWEB-0204","OBJECT_ID":"2021-031R","EPOCH":"2025-10-05T04:01:33.856608","MEAN_MOTION":13.14501951,"ECCENTRICITY":0.0001919,"INCLINATION":87.9058,"RA_OF_ASC_NODE":340.4938,"ARG_OF_PERICENTER":89.8773,"MEAN_ANOMALY":270.2576,"EPHEMERIS_TYPE":0,"CLASSIFICATION_TYPE":"U","NORAD_CAT_ID":48225,"ELEMENT_SET_NO":999,"REV_AT_EPOCH":21475,"BSTAR":0.00071563,"MEAN_MOTION_DOT":2.78e-6,"MEAN_MOTION_DDOT":0},{"OBJECT_NAME":"ONEWEB-0205","OBJECT_ID":"2021-031S","EPOCH":"2025-10-05T03:26:10.518720","MEAN_MOTION":13.14502054,"ECCENTRICITY":0.0002088,"INCLINATION":87.9061,"RA_OF_ASC_NODE":340.4906,"ARG_OF_PERICENTER":98.276,"MEAN_ANOMALY":261.8607,"EPHEMERIS_TYPE":0,"CLASSIFICATION_TYPE":"U","NORAD_CAT_ID":48226,"ELEMENT_SET_NO":999,"REV_AT_EPOCH":21476,"BSTAR":-8.9783e-5,"MEAN_MOTION_DOT":-2.1e-7,"MEAN_MOTION_DDOT":0},{"OBJECT_NAME":"ONEWEB-0206","OBJECT_ID":"2021-031T","EPOCH":"2025-10-05T04:36:57.769056","MEAN_MOTION":13.14502503,"ECCENTRICITY":0.0001584,"INCLINATION":87.9071,"RA_OF_ASC_NODE":340.4652,"ARG_OF_PERICENTER":101.2723,"MEAN_ANOMALY":258.8585,"EPHEMERIS_TYPE":0,"CLASSIFICATION_TYPE":"U","NORAD_CAT_ID":48227,"ELEMENT_SET_NO":999,"REV_AT_EPOCH":21472,"BSTAR":-0.00018468,"MEAN_MOTION_DOT":-5.6e-7,"MEAN_MOTION_DDOT":0},{"OBJECT_NAME":"ONEWEB-0182","OBJECT_ID":"2021-031U","EPOCH":"2025-10-05T04:30:06.719328","MEAN_MOTION":13.14501056,"ECCENTRICITY":0.0001937,"INCLINATION":87.9056,"RA_OF_ASC_NODE":340.5074,"ARG_OF_PERICENTER":91.9529,"MEAN_ANOMALY":268.1823,"EPHEMERIS_TYPE":0,"CLASSIFICATION_TYPE":"U","NORAD_CAT_ID":48228,"ELEMENT_SET_NO":999,"REV_AT_EPOCH":21493,"BSTAR":-3.6199e-5,"MEAN_MOTION_DOT":-1.0e-8,"MEAN_MOTION_DDOT":0},{"OBJECT_NAME":"ONEWEB-0186","OBJECT_ID":"2021-031V","EPOCH":"2025-10-05T04:46:05.164032","MEAN_MOTION":13.14500883,"ECCENTRICITY":0.0002005,"INCLINATION":87.907,"RA_OF_ASC_NODE":340.47,"ARG_OF_PERICENTER":98.9793,"MEAN_ANOMALY":261.1563,"EPHEMERIS_TYPE":0,"CLASSIFICATION_TYPE":"U","NORAD_CAT_ID":48229,"ELEMENT_SET_NO":999,"REV_AT_EPOCH":21488,"BSTAR":-0.00049241,"MEAN_MOTION_DOT":-1.7e-6,"MEAN_MOTION_DDOT":0},{"OBJECT_NAME":"ONEWEB-0181","OBJECT_ID":"2021-031W","EPOCH":"2025-10-05T04:14:08.055168","MEAN_MOTION":13.14501251,"ECCENTRICITY":0.0001991,"INCLINATION":87.9051,"RA_OF_ASC_NODE":340.5411,"ARG_OF_PERICENTER":102.434,"MEAN_ANOMALY":257.7012,"EPHEMERIS_TYPE":0,"CLASSIFICATION_TYPE":"U","NORAD_CAT_ID":48230,"ELEMENT_SET_NO":999,"REV_AT_EPOCH":21473,"BSTAR":0.00037281,"MEAN_MOTION_DOT":1.51e-6,"MEAN_MOTION_DDOT":0},{"OBJECT_NAME":"ONEWEB-0188","OBJECT_ID":"2021-031X","EPOCH":"2025-10-05T05:08:55.661568","MEAN_MOTION":13.14502065,"ECCENTRICITY":0.0001896,"INCLINATION":87.9058,"RA_OF_ASC_NODE":340.5283,"ARG_OF_PERICENTER":97.443,"MEAN_ANOMALY":262.6915,"EPHEMERIS_TYPE":0,"CLASSIFICATION_TYPE":"U","NORAD_CAT_ID":48231,"ELEMENT_SET_NO":999,"REV_AT_EPOCH":21464,"BSTAR":-0.00038773,"MEAN_MOTION_DOT":-1.31e-6,"MEAN_MOTION_DDOT":0},{"OBJECT_NAME":"ONEWEB-0220","OBJECT_ID":"2021-031Y","EPOCH":"2025-10-05T04:16:25.353408","MEAN_MOTION":13.1450346,"ECCENTRICITY":0.0002106,"INCLINATION":87.9071,"RA_OF_ASC_NODE":340.4752,"ARG_OF_PERICENTER":96.9672,"MEAN_ANOMALY":263.1697,"EPHEMERIS_TYPE":0,"CLASSIFICATION_TYPE":"U","NORAD_CAT_ID":48232,"ELEMENT_SET_NO":999,"REV_AT_EPOCH":21490,"BSTAR":0.00046004,"MEAN_MOTION_DOT":1.83e-6,"MEAN_MOTION_DDOT":0},{"OBJECT_NAME":"ONEWEB-0165","OBJECT_ID":"2021-031Z","EPOCH":"2025-10-05T04:57:30.799872","MEAN_MOTION":13.1450182,"ECCENTRICITY":0.0002039,"INCLINATION":87.9051,"RA_OF_ASC_NODE":340.5069,"ARG_OF_PERICENTER":100.0102,"MEAN_ANOMALY":260.1258,"EPHEMERIS_TYPE":0,"CLASSIFICATION_TYPE":"U","NORAD_CAT_ID":48233,"ELEMENT_SET_NO":999,"REV_AT_EPOCH":21486,"BSTAR":-0.0005586,"MEAN_MOTION_DOT":-1.94e-6,"MEAN_MOTION_DDOT":0}]
